start=new Date('2023-06-24T00:00:00.000Z').valueOf();
sats=[{"MEAN_MOTION":"15.08856002","SEMIMAJOR_AXIS":"6917.831","ELEMENT_SET_NO":"999","INCLINATION":"53.2157","PERIOD":"95.437","MEAN_ANOMALY":"251.3093","REV_AT_EPOCH":"6128","OBJECT_TYPE":"PAYLOAD","BSTAR":"0.00028240000000","COUNTRY_CODE":"US","DECAY_DATE":null,"CENTER_NAME":"EARTH","SITE":"AFETR","OBJECT_NAME":"STARLINK-4005","ECCENTRICITY":"0.00007480","TIME_SYSTEM":"UTC","REF_FRAME":"TEME","LAUNCH_DATE":"2022-05-18","PERIAPSIS":"539.179","GP_ID":"234508403","OBJECT_ID":"2022-053AG","MEAN_MOTION_DDOT":"0.0000000000000","TLE_LINE2":"2 52686  53.2157 268.5823 0000748 108.7981 251.3093 15.08856002 61284","APOAPSIS":"540.214","FILE":"3940917","ARG_OF_PERICENTER":"108.7981","RA_OF_ASC_NODE":"268.5823","NORAD_CAT_ID":"52686","MEAN_MOTION_DOT":"0.00004211","RCS_SIZE":"LARGE","TLE_LINE1":"1 52686U 22053AG  23174.64962781  .00004211  00000-0  28240-3 0  9996","EPHEMERIS_TYPE":"0","MEAN_ELEMENT_THEORY":"SGP4","CLASSIFICATION_TYPE":"U","EPOCH":"2023-06-23T15:35:27.842784"},{"MEAN_MOTION_DDOT":"0.0000000000000","OBJECT_ID":"2022-053AH","FILE":"3940917","APOAPSIS":"540.342","TLE_LINE2":"2 52687  53.2165 268.3527 0000914 104.1440 255.9654 15.08851628 61291","LAUNCH_DATE":"2022-05-18","PERIAPSIS":"539.078","GP_ID":"234507902","REF_FRAME":"TEME","EPOCH":"2023-06-23T16:49:39.135360","RCS_SIZE":"LARGE","CLASSIFICATION_TYPE":"U","MEAN_ELEMENT_THEORY":"SGP4","TLE_LINE1":"1 52687U 22053AH  23174.70114740  .00003247  00000-0  22193-3 0  9997","EPHEMERIS_TYPE":"0","NORAD_CAT_ID":"52687","MEAN_MOTION_DOT":"0.00003247","RA_OF_ASC_NODE":"268.3527","ARG_OF_PERICENTER":"104.1440","OBJECT_TYPE":"PAYLOAD","BSTAR":"0.00022193000000","MEAN_ANOMALY":"255.9654","PERIOD":"95.437","REV_AT_EPOCH":"6129","SEMIMAJOR_AXIS":"6917.845","ELEMENT_SET_NO":"999","MEAN_MOTION":"15.08851628","INCLINATION":"53.2165","ECCENTRICITY":"0.00009140","OBJECT_NAME":"STARLINK-3981","TIME_SYSTEM":"UTC","SITE":"AFETR","COUNTRY_CODE":"US","CENTER_NAME":"EARTH","DECAY_DATE":null},{"TLE_LINE2":"2 52688  53.2163 269.1488 0001009  99.2787 260.8319 15.08831409 61264","FILE":"3940789","APOAPSIS":"540.470","OBJECT_ID":"2022-053AJ","MEAN_MOTION_DDOT":"0.0000000000000","GP_ID":"234505073","LAUNCH_DATE":"2022-05-18","PERIAPSIS":"539.074","REF_FRAME":"TEME","EPOCH":"2023-06-23T11:58:11.708832","EPHEMERIS_TYPE":"0","TLE_LINE1":"1 52688U 22053AJ  23174.49874663 -.00001233  00000-0 -59444-4 0  9996","MEAN_ELEMENT_THEORY":"SGP4","CLASSIFICATION_TYPE":"U","RCS_SIZE":"LARGE","MEAN_MOTION_DOT":"-0.00001233","NORAD_CAT_ID":"52688","ARG_OF_PERICENTER":"99.2787","RA_OF_ASC_NODE":"269.1488","BSTAR":"-0.00005944400000","OBJECT_TYPE":"PAYLOAD","REV_AT_EPOCH":"6126","PERIOD":"95.438","MEAN_ANOMALY":"260.8319","MEAN_MOTION":"15.08831409","SEMIMAJOR_AXIS":"6917.907","ELEMENT_SET_NO":"999","INCLINATION":"53.2163","TIME_SYSTEM":"UTC","OBJECT_NAME":"STARLINK-4032","ECCENTRICITY":"0.00010090","SITE":"AFETR","DECAY_DATE":null,"CENTER_NAME":"EARTH","COUNTRY_CODE":"US"},{"REF_FRAME":"TEME","GP_ID":"234507901","LAUNCH_DATE":"2022-05-18","PERIAPSIS":"539.154","TLE_LINE2":"2 52689  53.2158 268.4025 0000813  92.4127 267.6958 15.08849514 61296","FILE":"3940917","APOAPSIS":"540.279","OBJECT_ID":"2022-053AK","MEAN_MOTION_DDOT":"0.0000000000000","ARG_OF_PERICENTER":"92.4127","RA_OF_ASC_NODE":"268.4025","MEAN_MOTION_DOT":"0.00002986","NORAD_CAT_ID":"52689","MEAN_ELEMENT_THEORY":"SGP4","TLE_LINE1":"1 52689U 22053AK  23174.69011032  .00002986  00000-0  20557-3 0  9998","EPHEMERIS_TYPE":"0","CLASSIFICATION_TYPE":"U","RCS_SIZE":"LARGE","EPOCH":"2023-06-23T16:33:45.531648","SEMIMAJOR_AXIS":"6917.851","ELEMENT_SET_NO":"999","MEAN_MOTION":"15.08849514","INCLINATION":"53.2158","REV_AT_EPOCH":"6129","PERIOD":"95.437","MEAN_ANOMALY":"267.6958","BSTAR":"0.00020557000000","OBJECT_TYPE":"PAYLOAD","DECAY_DATE":null,"CENTER_NAME":"EARTH","COUNTRY_CODE":"US","SITE":"AFETR","TIME_SYSTEM":"UTC","OBJECT_NAME":"STARLINK-4078","ECCENTRICITY":"0.00008130"},{"CENTER_NAME":"EARTH","DECAY_DATE":null,"COUNTRY_CODE":"US","SITE":"AFETR","TIME_SYSTEM":"UTC","ECCENTRICITY":"0.00008040","OBJECT_NAME":"STARLINK-4035","SEMIMAJOR_AXIS":"6917.876","ELEMENT_SET_NO":"999","INCLINATION":"53.2169","MEAN_MOTION":"15.08841497","REV_AT_EPOCH":"6124","MEAN_ANOMALY":"276.0970","PERIOD":"95.437","BSTAR":"0.00012389000000","OBJECT_TYPE":"PAYLOAD","RA_OF_ASC_NODE":"269.8075","ARG_OF_PERICENTER":"84.0113","NORAD_CAT_ID":"52690","MEAN_MOTION_DOT":"0.00001685","CLASSIFICATION_TYPE":"U","TLE_LINE1":"1 52690U 22053AL  23174.37731415  .00001685  00000-0  12389-3 0  9998","EPHEMERIS_TYPE":"0","MEAN_ELEMENT_THEORY":"SGP4","RCS_SIZE":"LARGE","EPOCH":"2023-06-23T09:03:19.942560","REF_FRAME":"TEME","GP_ID":"234500376","PERIAPSIS":"539.185","LAUNCH_DATE":"2022-05-18","APOAPSIS":"540.297","FILE":"3940605","TLE_LINE2":"2 52690  53.2169 269.8075 0000804  84.0113 276.0970 15.08841497 61247","MEAN_MOTION_DDOT":"0.0000000000000","OBJECT_ID":"2022-053AL"},{"DECAY_DATE":null,"CENTER_NAME":"EARTH","COUNTRY_CODE":"US","TIME_SYSTEM":"UTC","OBJECT_NAME":"STARLINK-3945","ECCENTRICITY":"0.00008600","SITE":"AFETR","REV_AT_EPOCH":"6125","PERIOD":"95.437","MEAN_ANOMALY":"287.2871","SEMIMAJOR_AXIS":"6917.856","ELEMENT_SET_NO":"999","MEAN_MOTION":"15.08847938","INCLINATION":"53.2166","BSTAR":"0.00059400000000","OBJECT_TYPE":"PAYLOAD","NORAD_CAT_ID":"52691","MEAN_MOTION_DOT":"0.00009180","RA_OF_ASC_NODE":"269.6196","ARG_OF_PERICENTER":"72.8216","EPOCH":"2023-06-23T10:06:55.910016","TLE_LINE1":"1 52691U 22053AM  23174.42148044  .00009180  00000-0  59400-3 0  9998","EPHEMERIS_TYPE":"0","MEAN_ELEMENT_THEORY":"SGP4","CLASSIFICATION_TYPE":"U","RCS_SIZE":"LARGE","GP_ID":"234500904","PERIAPSIS":"539.126","LAUNCH_DATE":"2022-05-18","REF_FRAME":"TEME","TLE_LINE2":"2 52691  53.2166 269.6196 0000860  72.8216 287.2871 15.08847938 61259","APOAPSIS":"540.316","FILE":"3940607","OBJECT_ID":"2022-053AM","MEAN_MOTION_DDOT":"0.0000000000000"},{"EPOCH":"2023-06-23T10:24:11.947104","MEAN_ELEMENT_THEORY":"SGP4","TLE_LINE1":"1 52692U 22053AN  23174.43347161 -.00000738  00000-0 -28302-4 0  9991","EPHEMERIS_TYPE":"0","CLASSIFICATION_TYPE":"U","RCS_SIZE":"LARGE","MEAN_MOTION_DOT":"-0.00000738","NORAD_CAT_ID":"52692","ARG_OF_PERICENTER":"88.0000","RA_OF_ASC_NODE":"269.5635","TLE_LINE2":"2 52692  53.2162 269.5635 0000806  88.0000 272.1085 15.08838287 61250","APOAPSIS":"540.308","FILE":"3940664","OBJECT_ID":"2022-053AN","MEAN_MOTION_DDOT":"0.0000000000000","GP_ID":"234501752","PERIAPSIS":"539.193","LAUNCH_DATE":"2022-05-18","REF_FRAME":"TEME","TIME_SYSTEM":"UTC","OBJECT_NAME":"STARLINK-3993","ECCENTRICITY":"0.00008060","SITE":"AFETR","DECAY_DATE":null,"CENTER_NAME":"EARTH","COUNTRY_CODE":"US","BSTAR":"-0.00002830200000","OBJECT_TYPE":"PAYLOAD","REV_AT_EPOCH":"6125","PERIOD":"95.438","MEAN_ANOMALY":"272.1085","SEMIMAJOR_AXIS":"6917.886","INCLINATION":"53.2162","ELEMENT_SET_NO":"999","MEAN_MOTION":"15.08838287"},{"APOAPSIS":"540.088","FILE":"3940059","TLE_LINE2":"2 52693  53.2161 272.9130 0000514  74.5818 285.5231 15.08844344 61141","MEAN_MOTION_DDOT":"0.0000000000000","OBJECT_ID":"2022-053AP","GP_ID":"234460628","PERIAPSIS":"539.377","LAUNCH_DATE":"2022-05-18","REF_FRAME":"TEME","EPOCH":"2023-06-22T16:27:04.883616","CLASSIFICATION_TYPE":"U","TLE_LINE1":"1 52693U 22053AP  23173.68547319  .00002217  00000-0  15731-3 0  9998","MEAN_ELEMENT_THEORY":"SGP4","EPHEMERIS_TYPE":"0","RCS_SIZE":"LARGE","NORAD_CAT_ID":"52693","MEAN_MOTION_DOT":"0.00002217","ARG_OF_PERICENTER":"74.5818","RA_OF_ASC_NODE":"272.9130","BSTAR":"0.00015731000000","OBJECT_TYPE":"PAYLOAD","REV_AT_EPOCH":"6114","MEAN_ANOMALY":"285.5231","PERIOD":"95.437","SEMIMAJOR_AXIS":"6917.867","ELEMENT_SET_NO":"999","MEAN_MOTION":"15.08844344","INCLINATION":"53.2161","TIME_SYSTEM":"UTC","ECCENTRICITY":"0.00005140","OBJECT_NAME":"STARLINK-3946","SITE":"AFETR","CENTER_NAME":"EARTH","DECAY_DATE":null,"COUNTRY_CODE":"US"},{"EPHEMERIS_TYPE":"0","TLE_LINE1":"1 52694U 22053AQ  23174.56133073  .00027045  00000-0  17101-2 0  9993","MEAN_ELEMENT_THEORY":"SGP4","CLASSIFICATION_TYPE":"U","RCS_SIZE":"LARGE","EPOCH":"2023-06-23T13:28:18.975072","RA_OF_ASC_NODE":"268.9809","ARG_OF_PERICENTER":"90.2271","MEAN_MOTION_DOT":"0.00027045","NORAD_CAT_ID":"52694","TLE_LINE2":"2 52694  53.2160 268.9809 0000951  90.2271 269.8830 15.08855860 61271","FILE":"3940918","APOAPSIS":"540.355","OBJECT_ID":"2022-053AQ","MEAN_MOTION_DDOT":"0.0000000000000","REF_FRAME":"TEME","GP_ID":"234507906","PERIAPSIS":"539.039","LAUNCH_DATE":"2022-05-18","SITE":"AFETR","TIME_SYSTEM":"UTC","OBJECT_NAME":"STARLINK-4072","ECCENTRICITY":"0.00009510","DECAY_DATE":null,"CENTER_NAME":"EARTH","COUNTRY_CODE":"US","BSTAR":"0.00171010000000","OBJECT_TYPE":"PAYLOAD","ELEMENT_SET_NO":"999","SEMIMAJOR_AXIS":"6917.832","INCLINATION":"53.2160","MEAN_MOTION":"15.08855860","REV_AT_EPOCH":"6127","PERIOD":"95.437","MEAN_ANOMALY":"269.8830"},{"RA_OF_ASC_NODE":"273.3070","ARG_OF_PERICENTER":"81.2726","MEAN_MOTION_DOT":"0.00005219","NORAD_CAT_ID":"52695","RCS_SIZE":"LARGE","CLASSIFICATION_TYPE":"U","EPHEMERIS_TYPE":"0","TLE_LINE1":"1 52695U 22053AR  23174.66570294  .00005219  00000-0  34557-3 0  9999","MEAN_ELEMENT_THEORY":"SGP4","EPOCH":"2023-06-23T15:58:36.734016","REF_FRAME":"TEME","LAUNCH_DATE":"2022-05-18","PERIAPSIS":"539.095","GP_ID":"234508423","MEAN_MOTION_DDOT":"0.0000000000000","OBJECT_ID":"2022-053AR","APOAPSIS":"540.278","FILE":"3940922","TLE_LINE2":"2 52695  53.2157 273.3070 0000855  81.2726 278.8363 15.08859173 61223","COUNTRY_CODE":"US","CENTER_NAME":"EARTH","DECAY_DATE":null,"SITE":"AFETR","ECCENTRICITY":"0.00008550","OBJECT_NAME":"STARLINK-4041","TIME_SYSTEM":"UTC","SEMIMAJOR_AXIS":"6917.822","INCLINATION":"53.2157","ELEMENT_SET_NO":"999","MEAN_MOTION":"15.08859173","PERIOD":"95.436","MEAN_ANOMALY":"278.8363","REV_AT_EPOCH":"6122","OBJECT_TYPE":"PAYLOAD","BSTAR":"0.00034557000000"}];
